FENGYUN 1C DEB          
1 31431U 99025BTT 17342.16747309  .00000682  00000-0  51321-3 0  9992
2 31431  98.5397  46.9567 0148230 318.7768  40.2275 13.92430513537826
